[{"OBJECT_NAME":"STARLINK-31668","OBJECT_ID":"2024-076S","EPOCH":"2026-03-09T04:52:43.093920","MEAN_MOTION":15.2756978,"ECCENTRICITY":0.0001291,"INCLINATION":43.0046,"RA_OF_ASC_NODE":11.2859,"ARG_OF_PERICENTER":278.2147,"MEAN_ANOMALY":81.8559,"EPHEMERIS_TYPE":0,"CLASSIFICATION_TYPE":"U","NORAD_CAT_ID":59580,"ELEMENT_SET_NO":999,"REV_AT_EPOCH":10643,"BSTAR":-0.0001011497,"MEAN_MOTION_DOT":-3.044e-5,"MEAN_MOTION_DDOT":0},{"OBJECT_NAME":"FLOCK 4G-9","OBJECT_ID":"2025-009P","EPOCH":"2026-03-09T19:25:28.387776","MEAN_MOTION":15.26202239,"ECCENTRICITY":0.00036141,"INCLINATION":97.4,"RA_OF_ASC_NODE":150.6115,"ARG_OF_PERICENTER":328.2191,"MEAN_ANOMALY":31.8829,"EPHEMERIS_TYPE":0,"CLASSIFICATION_TYPE":"U","NORAD_CAT_ID":62622,"ELEMENT_SET_NO":999,"REV_AT_EPOCH":6369,"BSTAR":0.00041816911,"MEAN_MOTION_DOT":0.00010752,"MEAN_MOTION_DDOT":0}]
